STARLINK-33955          
1 63902U 25095N   25268.33680839  .00057306  00000+0  20741-2 0  9990
2 63902  43.0033  29.6608 0000851 314.8823  45.1959 15.27608930 22490
STARLINK-34097          
1 63903U 25095P   25268.61762814  .00046475  00000+0  16870-2 0  9999
2 63903  43.0069  28.3276 0003157 279.3508  80.6987 15.27592288 22532
STARLINK-34092          
1 63904U 25095Q   25268.64717946  .00046686  00000+0  16943-2 0  9994
2 63904  43.0042  28.5559 0002189 281.8031  78.2575 15.27599091 22538
STARLINK-34114          
1 63905U 25095R   25268.32796401  .00051604  00000+0  18701-2 0  9993
2 63905  43.0066  30.4604 0002456 282.6252  77.4325 15.27606883 22485
STARLINK-33770          
1 63906U 25095S   25268.60734773  .00050433  00000+0  18288-2 0  9998
2 63906  43.0025  28.2469 0001843 280.7489  79.3155 15.27596467 22539
STARLINK-34106          
1 63907U 25095T   25268.60349368  .00053486  00000+0  19383-2 0  9999
2 63907  43.0058  28.2195 0001865 288.8495  71.2155 15.27593216 22532
STARLINK-34083          
1 63908U 25095U   25268.71641818  .00046240  00000+0  16782-2 0  9997
2 63908  43.0036  28.2149 0001457 255.3695 104.6995 15.27603247 22546
STARLINK-34066          
1 63909U 25095V   25268.83305320  .00045095  00000+0  16361-2 0  9996
2 63909  43.0039  27.3660 0001779 281.5229  78.5423 15.27623675 22563
STARLINK-34071          
1 63910U 25095W   25268.77409426  .00070733  00000+0  25519-2 0  9995
2 63910  43.0038  27.7871 0001552 277.9423  82.1253 15.27624868 22552
STARLINK-34038          
1 63911U 25095X   25266.66759076  .00045064  00000+0  16363-2 0  9997
2 63911  43.0038  39.4905 0001796 289.1503  70.9154 15.27595961 22236
STARLINK-34031          
1 63912U 25095Y   25268.63304372  .00050381  00000+0  18265-2 0  9993
2 63912  43.0012  28.4442 0001672 279.3551  80.7112 15.27604844 22537
STARLINK-34070          
1 63913U 25095Z   25268.62533136  .00046825  00000+0  16991-2 0  9997
2 63913  43.0049  28.3863 0002243 267.1064  92.9531 15.27603785 22536
STARLINK-34068          
1 63914U 25095AA  25268.68044290  .00052339  00000+0  18966-2 0  9993
2 63914  43.0023  27.9364 0001282 272.1575  87.9130 15.27604728 22543
STARLINK-34076          
1 63915U 25095AB  25268.81763603  .00068859  00000+0  24850-2 0  9998
2 63915  43.0013  27.2431 0001357 281.1484  78.9215 15.27626253 22566
STARLINK-33910          
1 63916U 25095AC  25268.66502263  .00058256  00000+0  21084-2 0  9991
2 63916  43.0034  27.8167 0001258 277.7826  82.2883 15.27602934 22540
STARLINK-34075          
1 63917U 25095AD  25268.61120267  .00048663  00000+0  17653-2 0  9995
2 63917  43.0022  28.2762 0001167 265.2111  94.8607 15.27597650 22532
YAOGAN-40 02A           
1 63918U 25096A   25268.96026928  .00000188  00000+0  91712-4 0  9994
2 63918  85.9920 306.4444 0001957 100.4292 259.7112 14.12366161 19274
YAOGAN-40 02B           
1 63919U 25096B   25269.03126874  .00000267  00000+0  13466-3 0  9992
2 63919  85.9910 306.4026 0001571  94.8213 265.3149 14.12368669 19280
YAOGAN-40 02C           
1 63920U 25096C   25269.03119600  .00000282  00000+0  14304-3 0  9992
2 63920  85.9920 305.6540 0002046  99.6092 260.5323 14.12368870 38120
TJS-19                  
1 63924U 25097A   25262.27162609 -.00000297  00000+0  00000+0 0  9994
2 63924   3.7700 313.7856 0002514 255.4593  28.1484  1.00275758  1420
STARLINK-34012          
1 63926U 25098A   25268.48698651  .00008138  00000+0  68902-3 0  9997
2 63926  70.0017 331.1139 0003936 278.3091  81.7622 14.98328191 21842
STARLINK-33956          
1 63927U 25098B   25268.57458563  .00012087  00000+0  10187-2 0  9993
2 63927  70.0019 330.6113 0003454 269.5433  90.5330 14.98342536 21841
STARLINK-33997          
1 63928U 25098C   25268.90006171  .00008662  00000+0  73254-3 0  9994
2 63928  70.0024 330.1418 0003253 271.4716  88.6070 14.98343897 21888
STARLINK-33989          
1 63929U 25098D   25268.60814253  .00006806  00000+0  57747-3 0  9997
2 63929  70.0018 330.7317 0003571 270.6916  89.3834 14.98340346 21840
STARLINK-33980          
1 63930U 25098E   25268.49532699  .00006548  00000+0  55610-3 0  9997
2 63930  70.0022 331.1444 0003998 271.5827  88.4874 14.98327172 21821
STARLINK-33994          
1 63931U 25098F   25268.60397037  .00008434  00000+0  71355-3 0  9996
2 63931  70.0023 330.7170 0003095 270.3436  89.7369 14.98340415 21845
STARLINK-33971          
1 63932U 25098G   25268.49132034  .00009784  00000+0  82640-3 0  9996
2 63932  70.0023 331.1296 0003995 268.7535  91.3166 14.98337411 21824
STARLINK-33877          
1 63933U 25098H   25268.57892528  .00010302  00000+0  86973-3 0  9998
2 63933  70.0016 330.6216 0003814 268.3564  91.7158 14.98338063 21842
STARLINK-33895          
1 63934U 25098J   25268.45375586  .00010478  00000+0  88444-3 0  9995
2 63934  70.0017 330.9931 0003100 269.4470  90.6334 14.98336127 21828
STARLINK-34005          
1 63935U 25098K   25268.49549281  .00010897  00000+0  91928-3 0  9991
2 63935  70.0032 331.1371 0003559 270.6679  89.4072 14.98343106 21820
STARLINK-34027          
1 63936U 25098L   25268.57059706  .00021460  00000+0  17999-2 0  9992
2 63936  70.0017 330.5958 0003329 266.9283  93.1495 14.98348114 21827
STARLINK-34035          
1 63937U 25098M   25268.59979617  .00010022  00000+0  84622-3 0  9997
2 63937  70.0015 330.7003 0003741 271.8852  88.1879 14.98341515 21822
STARLINK-33988          
1 63938U 25098N   25268.47863382  .00008692  00000+0  73523-3 0  9994
2 63938  70.0020 331.0826 0003295 270.2309  89.8473 14.98337335 21801
STARLINK-34020          
1 63939U 25098P   25268.51632958  .00022169  00000+0  18587-2 0  9996
2 63939  70.0017 330.8092 0002875 268.4514  91.6316 14.98354869 21819
STARLINK-34021          
1 63940U 25098Q   25268.90023123  .00005416  00000+0  46131-3 0  9992
2 63940  70.0027 330.1415 0002965 272.1409  87.9410 14.98334226 21862
STARLINK-34004          
1 63941U 25098R   25268.59145083  .00012052  00000+0  10159-2 0  9992
2 63941  70.0014 330.6657 0003546 270.5731  89.5022 14.98340014 21823
STARLINK-34014          
1 63942U 25098S   25268.59545716  .00008720  00000+0  73743-3 0  9996
2 63942  70.0016 330.6843 0003144 270.2452  89.8347 14.98343232 21822
STARLINK-33985          
1 63943U 25098T   25268.51200107  .00010888  00000+0  91868-3 0  9997
2 63943  70.0015 330.7868 0003734 269.4795  90.5936 14.98337107 21811
STARLINK-33996          
1 63944U 25098U   25268.47881273  .00003371  00000+0  29032-3 0  9995
2 63944  70.0036 331.0847 0002784 263.9007  96.1834 14.98314367 21806
STARLINK-34036          
1 63945U 25098V   25268.62066605  .00007623  00000+0  64572-3 0  9999
2 63945  70.0017 330.7760 0003535 272.6381  87.4373 14.98345551 21825
STARLINK-34039          
1 63946U 25098W   25268.61649297  .00007580  00000+0  64228-3 0  9993
2 63946  70.0020 330.7604 0003112 269.6872  90.3931 14.98337242 21820
STARLINK-34034          
1 63947U 25098X   25268.61633919  .00004807  00000+0  41046-3 0  9990
2 63947  70.0019 330.7603 0003436 268.2724  91.8042 14.98321876 21823
STARLINK-33983          
1 63948U 25098Y   25268.59562453  .00008314  00000+0  70360-3 0  9990
2 63948  70.0016 330.6848 0002974 269.2335  90.8483 14.98337780 21825
STARLINK-33993          
1 63949U 25098Z   25268.50799477  .00002398  00000+0  20877-3 0  9994
2 63949  70.0022 330.7722 0003237 267.6587  92.4202 14.98321667 21812
STARLINK-33962          
1 63950U 25098AA  25268.58294991  .00015132  00000+0  12724-2 0  9996
2 63950  70.0013 330.6375 0003884 266.5614  93.5101 14.98353900 21820
STARLINK-33998          
1 63951U 25098AB  25268.45358259 -.00026329  00000+0 -22050-2 0  9996
2 63951  70.0018 330.9911 0003683 255.0321 105.0430 14.98363246 21806
STARLINK-34159          
1 63952U 25099A   25268.33179114  .00046167  00000+0  16763-2 0  9990
2 63952  43.0047  30.3626 0001094 253.4766 106.5966 15.27587711 22036
STARLINK-34137          
1 63953U 25099B   25268.70611808  .00070910  00000+0  25593-2 0  9997
2 63953  43.0043  28.0117 0001375 279.7888  80.2808 15.27610927 22107
STARLINK-33974          
1 63954U 25099C   25268.47026578  .00050232  00000+0  18266-2 0  9990
2 63954  43.0044  29.6807 0001869 283.2324  76.8319 15.27506011 22066
STARLINK-34170          
1 63955U 25099D   25268.33564478  .00047437  00000+0  17203-2 0  9995
2 63955  43.0043  30.3941 0002089 281.4119  78.6498 15.27618104 22033
STARLINK-34187          
1 63956U 25099E   25268.32922086  .00058553  00000+0  21169-2 0  9995
2 63956  43.0026  30.3446 0000481 250.6860 109.3939 15.27636214 22045
STARLINK-34142          
1 63957U 25099F   25268.65229952  .00023611  00000+0  86428-3 0  9991
2 63957  43.0033  28.4653 0001030 240.8098 119.2651 15.27599331 22091
STARLINK-34144          
1 63958U 25099G   25268.64843668  .00054187  00000+0  19624-2 0  9992
2 63958  43.0048  28.4383 0001884 260.1795  99.8844 15.27610324 22097
STARLINK-34099          
1 63959U 25099H   25268.33307984  .00042280  00000+0  15361-2 0  9990
2 63959  43.0051  30.3705 0001533 261.2396  98.8282 15.27601898 22048
STARLINK-34107          
1 63960U 25099J   25268.64458334  .00056665  00000+0  20511-2 0  9997
2 63960  43.0044  28.4084 0001847 262.1014  97.9628 15.27608085 22099
STARLINK-34121          
1 63961U 25099K   25268.63816359  .00048959  00000+0  17758-2 0  9998
2 63961  43.0033  28.3586 0002070 287.8817  72.1809 15.27599905 22094
STARLINK-34103          
1 63962U 25099L   25268.83046036  .00055444  00000+0  20054-2 0  9998
2 63962  43.0021  27.2224 0002031 278.9697  81.0925 15.27642503 22128
STARLINK-33801          
1 63963U 25099M   25268.36505308  .00054719  00000+0  19815-2 0  9996
2 63963  43.0019  29.7476 0002209 286.9060  73.1550 15.27607886 22055
STARLINK-34135          
1 63964U 25099N   25268.63044781  .00040335  00000+0  14654-2 0  9995
2 63964  42.9974  28.2997 0000512  79.6854 280.4055 15.27622377 22098
